GPS BIIF-11 (PRN 10)    
1 41019U 15062A   26073.54768049 -.00000046  00000+0  00000+0 0  9999
2 41019  56.8998  34.4573 0111400 231.5515 127.4408  2.00567062 75935
GSAT-15 (GAGAN/PRN 139) 
1 41028U 15065A   26074.08616394 -.00000259  00000+0  00000+0 0  9993
2 41028   0.0651 269.1503 0001568 126.8549 261.2054  1.00271405 37853
GSAT0209 (GALILEO 12)   
1 41174U 15079A   26073.59877879  .00000042  00000+0  00000+0 0  9991
2 41174  55.7661 103.8551 0005024 323.1920  36.8517  1.70474547 63168
GSAT0208 (GALILEO 11)   
1 41175U 15079B   26072.05924766  .00000030  00000+0  00000+0 0  9997
2 41175  55.7636 103.8944 0004380 323.4331  36.6088  1.70474457 63554
IRNSS-1E                
1 41241U 16003A   26073.87590971 -.00000277  00000+0  00000+0 0  9991
2 41241  33.0313  61.1066 0017297 189.2801 349.1711  1.00270241 37139
GPS BIIF-12 (PRN 32)    
1 41328U 16007A   26072.13767287  .00000030  00000+0  00000+0 0  9991
2 41328  55.4616  93.2660 0095647 246.2279 112.8230  2.00556390 73913
COSMOS 2514 (751)       
1 41330U 16008A   26073.96396829 -.00000016  00000+0  00000+0 0  9992
2 41330  65.0762 316.2426 0009007 206.6509 153.3673  2.13102703 78616
IRNSS-1F                
1 41384U 16015A   26074.24836439  .00000159  00000+0  00000+0 0  9994
2 41384   5.1117  98.9973 0018851 189.0156   6.7323  1.00276665 36727
BEIDOU-2 IGSO-6 (C13)   
1 41434U 16021A   26073.87235635 -.00000128  00000+0  00000+0 0  9993
2 41434  60.1011  38.9760 0059349 233.2646 310.0546  1.00276688 36530
IRNSS-1G                
1 41469U 16027A   26073.98308722 -.00000335  00000+0  00000+0 0  9997
2 41469   4.9617  99.7395 0005613 315.9189 240.1519  1.00263469 36233
GSAT0211 (GALILEO 14)   
1 41549U 16030A   26073.94299010  .00000032  00000+0  00000+0 0  9998
2 41549  55.1274 224.2841 0003384  23.2273 336.7393  1.70473906 61063
GSAT0210 (GALILEO 13)   
1 41550U 16030B   26073.61368000  .00000033  00000+0  00000+0 0  9991
2 41550  55.1254 224.2912 0001477 201.7077 158.2389  1.70474017 61053
BEIDOU-2 G7 (C03)       
1 41586U 16037A   26074.08937062 -.00000353  00000+0  00000+0 0  9995
2 41586   1.4861  68.3228 0007636 346.6372 260.4575  1.00275181  5940
EUTELSAT 117 WEST B (W*)
1 41589U 16038B   26073.30322345 -.00000012  00000+0  00000+0 0  9997
2 41589   0.0416   6.7202 0000259 285.2785 232.0791  1.00272184 35715
GSAT0207 (GALILEO 15)   
1 41859U 16069A   26072.71887421  .00000034  00000+0  00000+0 0  9999
2 41859  55.4358 103.7267 0005361 309.9075  50.1195  1.70474457 57779
GSAT0212 (GALILEO 16)   
1 41860U 16069B   26071.98582704  .00000029  00000+0  00000+0 0  9999
2 41860  55.4332 103.7422 0003884 334.9903  25.0622  1.70474723 58012
GSAT0213 (GALILEO 17)   
1 41861U 16069C   26073.52642598  .00000040  00000+0  00000+0 0  9993
2 41861  55.4372 103.7072 0005480 293.9947  66.0255  1.70474947 57906
